{
  "type": "FeatureCollection",
  "features": [
    {
      "type": "Feature",
      "properties": {
        "norad_id": 31541,
        "name": "FENGYUN 1C DEB",
        "group": "fengyun-1c-debris",
        "lat": -46.24750363733153,
        "lon": -54.265519769475034,
        "alt_km": 616.1334282279086,
        "timestamp": "2025-12-18T07:01:54.872753+00:00",
        "meta_object_name": "FENGYUN 1C DEB",
        "meta_object_id": "1999-025BYG",
        "meta_epoch": "2025-12-17T08:44:47.998752",
        "meta_mean_motion": 14.68902508,
        "meta_eccentricity": 0.00784699,
        "meta_inclination": 98.9791,
        "meta_ra_of_asc_node": 134.2215,
        "meta_arg_of_pericenter": 225.9968,
        "meta_mean_anomaly": 133.4749,
        "meta_ephemeris_type": 0,
        "meta_classification_type": "U",
        "meta_norad_cat_id": 31541,
        "meta_element_set_no": 999,
        "meta_rev_at_epoch": 98491,
        "meta_bstar": 0.0011075136,
        "meta_mean_motion_dot": 6.731e-05,
        "meta_mean_motion_ddot": 0,
        "tle_line1": "1 31541U 99025BYG 25351.36444443  .00006731  00000+0  11075-2 0  9999",
        "tle_line2": "2 31541  98.9791 134.2215 0078469 225.9968 133.4749 14.68902508984917"
      },
      "geometry": {
        "type": "Point",
        "coordinates": [
          -54.265519769475034,
          -46.24750363733153
        ]
      }
    },
    {
      "type": "Feature",
      "properties": {
        "norad_id": 31542,
        "name": "FENGYUN 1C DEB",
        "group": "fengyun-1c-debris",
        "lat": -77.84076569058355,
        "lon": -179.25196447343265,
        "alt_km": 811.3831394308181,
        "timestamp": "2025-12-18T07:01:54.872763+00:00",
        "meta_object_name": "FENGYUN 1C DEB",
        "meta_object_id": "1999-025BYH",
        "meta_epoch": "2025-12-17T14:37:07.400352",
        "meta_mean_motion": 14.2282267,
        "meta_eccentricity": 0.0047729,
        "meta_inclination": 98.7317,
        "meta_ra_of_asc_node": 45.5728,
        "meta_arg_of_pericenter": 193.2055,
        "meta_mean_anomaly": 166.7877,
        "meta_ephemeris_type": 0,
        "meta_classification_type": "U",
        "meta_norad_cat_id": 31542,
        "meta_element_set_no": 999,
        "meta_rev_at_epoch": 96009,
        "meta_bstar": 0.00099429608,
        "meta_mean_motion_dot": 2.214e-05,
        "meta_mean_motion_ddot": 0,
        "tle_line1": "1 31542U 99025BYH 25351.60911343  .00002214  00000+0  99430-3 0  9999",
        "tle_line2": "2 31542  98.7317  45.5728 0047729 193.2055 166.7877 14.22822670960097"
      },
      "geometry": {
        "type": "Point",
        "coordinates": [
          -179.25196447343265,
          -77.84076569058355
        ]
      }
    },
    {
      "type": "Feature",
      "properties": {
        "norad_id": 31544,
        "name": "FENGYUN 1C DEB",
        "group": "fengyun-1c-debris",
        "lat": -2.1227744803452606,
        "lon": -136.83795718577892,
        "alt_km": 840.0387156878587,
        "timestamp": "2025-12-18T07:01:54.872773+00:00",
        "meta_object_name": "FENGYUN 1C DEB",
        "meta_object_id": "1999-025BYK",
        "meta_epoch": "2025-12-17T14:53:24.288000",
        "meta_mean_motion": 14.14347496,
        "meta_eccentricity": 0.00319764,
        "meta_inclination": 98.8287,
        "meta_ra_of_asc_node": 42.8275,
        "meta_arg_of_pericenter": 254.7367,
        "meta_mean_anomaly": 105.027,
        "meta_ephemeris_type": 0,
        "meta_classification_type": "U",
        "meta_norad_cat_id": 31544,
        "meta_element_set_no": 999,
        "meta_rev_at_epoch": 95826,
        "meta_bstar": 0.00060982739,
        "meta_mean_motion_dot": 1.128e-05,
        "meta_mean_motion_ddot": 0,
        "tle_line1": "1 31544U 99025BYK 25351.62042000  .00001128  00000+0  60983-3 0  9992",
        "tle_line2": "2 31544  98.8287  42.8275 0031976 254.7367 105.0270 14.14347496958267"
      },
      "geometry": {
        "type": "Point",
        "coordinates": [
          -136.83795718577892,
          -2.1227744803452606
        ]
      }
    },
    {
      "type": "Feature",
      "properties": {
        "norad_id": 31546,
        "name": "FENGYUN 1C DEB",
        "group": "fengyun-1c-debris",
        "lat": -37.152154523576726,
        "lon": 67.67771274354381,
        "alt_km": 952.8869098803489,
        "timestamp": "2025-12-18T07:01:54.872783+00:00",
        "meta_object_name": "FENGYUN 1C DEB",
        "meta_object_id": "1999-025BYM",
        "meta_epoch": "2025-12-17T15:55:11.093376",
        "meta_mean_motion": 14.13162698,
        "meta_eccentricity": 0.01460232,
        "meta_inclination": 98.2444,
        "meta_ra_of_asc_node": 60.7901,
        "meta_arg_of_pericenter": 122.8159,
        "meta_mean_anomaly": 238.7175,
        "meta_ephemeris_type": 0,
        "meta_classification_type": "U",
        "meta_norad_cat_id": 31546,
        "meta_element_set_no": 999,
        "meta_rev_at_epoch": 94858,
        "meta_bstar": 0.0011441747,
        "meta_mean_motion_dot": 2.331e-05,
        "meta_mean_motion_ddot": 0,
        "tle_line1": "1 31546U 99025BYM 25351.66332284  .00002331  00000+0  11442-2 0  9996",
        "tle_line2": "2 31546  98.2444  60.7901 0146023 122.8159 238.7175 14.13162698948587"
      },
      "geometry": {
        "type": "Point",
        "coordinates": [
          67.67771274354381,
          -37.152154523576726
        ]
      }
    },
    {
      "type": "Feature",
      "properties": {
        "norad_id": 31547,
        "name": "FENGYUN 1C DEB",
        "group": "fengyun-1c-debris",
        "lat": -64.18575448237617,
        "lon": 55.56147871151929,
        "alt_km": 800.7083358814198,
        "timestamp": "2025-12-18T07:01:54.872793+00:00",
        "meta_object_name": "FENGYUN 1C DEB",
        "meta_object_id": "1999-025BYN",
        "meta_epoch": "2025-12-09T09:02:48.494688",
        "meta_mean_motion": 14.23103077,
        "meta_eccentricity": 0.00537834,
        "meta_inclination": 99.0872,
        "meta_ra_of_asc_node": 27.0415,
        "meta_arg_of_pericenter": 262.539,
        "meta_mean_anomaly": 96.9674,
        "meta_ephemeris_type": 0,
        "meta_classification_type": "U",
        "meta_norad_cat_id": 31547,
        "meta_element_set_no": 999,
        "meta_rev_at_epoch": 63969,
        "meta_bstar": 0.0021137662,
        "meta_mean_motion_dot": 4.797e-05,
        "meta_mean_motion_ddot": 0,
        "tle_line1": "1 31547U 99025BYN 25343.37695017  .00004797  00000+0  21138-2 0  9993",
        "tle_line2": "2 31547  99.0872  27.0415 0053783 262.5390  96.9674 14.23103077639691"
      },
      "geometry": {
        "type": "Point",
        "coordinates": [
          55.56147871151929,
          -64.18575448237617
        ]
      }
    },
    {
      "type": "Feature",
      "properties": {
        "norad_id": 31550,
        "name": "FENGYUN 1C DEB",
        "group": "fengyun-1c-debris",
        "lat": 81.68013702704832,
        "lon": -100.13454055523525,
        "alt_km": 881.5370391371171,
        "timestamp": "2025-12-18T07:01:54.872802+00:00",
        "meta_object_name": "FENGYUN 1C DEB",
        "meta_object_id": "1999-025BYR",
        "meta_epoch": "2025-12-17T10:35:37.367808",
        "meta_mean_motion": 14.40236315,
        "meta_eccentricity": 0.01900387,
        "meta_inclination": 98.3108,
        "meta_ra_of_asc_node": 350.7682,
        "meta_arg_of_pericenter": 258.5636,
        "meta_mean_anomaly": 99.4156,
        "meta_ephemeris_type": 0,
        "meta_classification_type": "U",
        "meta_norad_cat_id": 31550,
        "meta_element_set_no": 999,
        "meta_rev_at_epoch": 65522,
        "meta_bstar": 0.00054713323,
        "meta_mean_motion_dot": 2.092e-05,
        "meta_mean_motion_ddot": 0,
        "tle_line1": "1 31550U 99025BYR 25351.44140472  .00002092  00000+0  54713-3 0  9996",
        "tle_line2": "2 31550  98.3108 350.7682 0190038 258.5636  99.4156 14.40236315655225"
      },
      "geometry": {
        "type": "Point",
        "coordinates": [
          -100.13454055523525,
          81.68013702704832
        ]
      }
    },
    {
      "type": "Feature",
      "properties": {
        "norad_id": 31552,
        "name": "FENGYUN 1C DEB",
        "group": "fengyun-1c-debris",
        "lat": 6.760801136553642,
        "lon": -64.7318897334364,
        "alt_km": 801.1327066729382,
        "timestamp": "2025-12-18T07:01:54.872835+00:00",
        "meta_object_name": "FENGYUN 1C DEB",
        "meta_object_id": "1999-025BYT",
        "meta_epoch": "2025-12-17T06:58:54.985152",
        "meta_mean_motion": 14.45772457,
        "meta_eccentricity": 0.00853627,
        "meta_inclination": 98.6198,
        "meta_ra_of_asc_node": 113.2198,
        "meta_arg_of_pericenter": 6.8749,
        "meta_mean_anomaly": 353.3591,
        "meta_ephemeris_type": 0,
        "meta_classification_type": "U",
        "meta_norad_cat_id": 31552,
        "meta_element_set_no": 999,
        "meta_rev_at_epoch": 95942,
        "meta_bstar": 0.0020741958,
        "meta_mean_motion_dot": 7.651e-05,
        "meta_mean_motion_ddot": 0,
        "tle_line1": "1 31552U 99025BYT 25351.29091418  .00007651  00000+0  20742-2 0  9996",
        "tle_line2": "2 31552  98.6198 113.2198 0085362   6.8749 353.3591 14.45772457959426"
      },
      "geometry": {
        "type": "Point",
        "coordinates": [
          -64.7318897334364,
          6.760801136553642
        ]
      }
    }
  ]
}